FENGYUN 1C DEB          
1 31147U 99025BGZ 17346.43303336  .00003582  00000-0  39952-3 0  9996
2 31147  99.1674  49.6112 0125339 193.3362 233.3088 14.82279491567009
